{"type": "FeatureCollection", "features": [ {"type": "Feature", "properties": {"norad_id": 54234, "name": "NOAA 21 (JPSS-2)", "group": "weather", "lat": -24.698792935780364, "lon": 97.6391592400975, "alt_km": 834.0501190785326, "timestamp": "2025-12-11T08:58:26.757226+00:00", "meta": {"OBJECT_NAME": "NOAA 21 (JPSS-2)", "OBJECT_ID": "2022-150A", "EPOCH": "2025-12-11T02:56:13.042752", "MEAN_MOTION": 14.19523527, "ECCENTRICITY": 0.0002274, "INCLINATION": 98.746, "RA_OF_ASC_NODE": 281.4508, "ARG_OF_PERICENTER": 41.108, "MEAN_ANOMALY": 319.0267, "EPHEMERIS_TYPE": 0, "CLASSIFICATION_TYPE": "U", "NORAD_CAT_ID": 54234, "ELEMENT_SET_NO": 999, "REV_AT_EPOCH": 15986, "BSTAR": 0.00010144, "MEAN_MOTION_DOT": 1.7e-06, "MEAN_MOTION_DDOT": 0}, "tle": {"line1": "1 54234U 22150A   25345.12237318  .00000170  00000+0  10144-3 0  9994", "line2": "2 54234  98.7460 281.4508 0002274  41.1080 319.0267 14.19523527159867"}}, "geometry": {"type": "Point", "coordinates": [97.6391592400975, -24.698792935780364]}}, {"type": "Feature", "properties": {"norad_id": 54743, "name": "METEOSAT-12 (MTG-I1)", "group": "weather", "lat": -0.1499044577012696, "lon": -145.3114060708709, "alt_km": 35781.62425937449, "timestamp": "2025-12-11T08:58:26.757239+00:00", "meta": {"OBJECT_NAME": "METEOSAT-12 (MTG-I1)", "OBJECT_ID": "2022-170C", "EPOCH": "2025-12-11T03:14:13.816032", "MEAN_MOTION": 1.00268535, "ECCENTRICITY": 0.0001807, "INCLINATION": 0.6851, "RA_OF_ASC_NODE": 23.3256, "ARG_OF_PERICENTER": 236.6793, "MEAN_ANOMALY": 228.4159, "EPHEMERIS_TYPE": 0, "CLASSIFICATION_TYPE": "U", "NORAD_CAT_ID": 54743, "ELEMENT_SET_NO": 999, "REV_AT_EPOCH": 1109, "BSTAR": 0, "MEAN_MOTION_DOT": -2e-08, "MEAN_MOTION_DDOT": 0}, "tle": {"line1": "1 54743U 22170C   25345.13488213 -.00000002  00000+0  00000+0 0  9995", "line2": "2 54743   0.6851  23.3256 0001807 236.6793 228.4159  1.00268535 11090"}}, "geometry": {"type": "Point", "coordinates": [-145.3114060708709, -0.1499044577012696]}}, {"type": "Feature", "properties": {"norad_id": 55973, "name": "TIANMU-1 03", "group": "weather", "lat": -73.13235507261474, "lon": -57.807715917274884, "alt_km": 453.91198149977663, "timestamp": "2025-12-11T08:58:26.757250+00:00", "meta": {"OBJECT_NAME": "TIANMU-1 03", "OBJECT_ID": "2023-039A", "EPOCH": "2025-12-11T04:45:15.846048", "MEAN_MOTION": 15.40849188, "ECCENTRICITY": 0.0004473, "INCLINATION": 97.511, "RA_OF_ASC_NODE": 147.8067, "ARG_OF_PERICENTER": 65.6884, "MEAN_ANOMALY": 294.4829, "EPHEMERIS_TYPE": 0, "CLASSIFICATION_TYPE": "U", "NORAD_CAT_ID": 55973, "ELEMENT_SET_NO": 999, "REV_AT_EPOCH": 15182, "BSTAR": 0.00056653, "MEAN_MOTION_DOT": 0.00023205, "MEAN_MOTION_DDOT": 0}, "tle": {"line1": "1 55973U 23039A   25345.19810007  .00023205  00000+0  56653-3 0  9990", "line2": "2 55973  97.5110 147.8067 0004473  65.6884 294.4829 15.40849188151825"}}, "geometry": {"type": "Point", "coordinates": [-57.807715917274884, -73.13235507261474]}}, {"type": "Feature", "properties": {"norad_id": 55974, "name": "TIANMU-1 04", "group": "weather", "lat": 6.914575661318924, "lon": 146.26309126982534, "alt_km": 442.64599472796635, "timestamp": "2025-12-11T08:58:26.757264+00:00", "meta": {"OBJECT_NAME": "TIANMU-1 04", "OBJECT_ID": "2023-039B", "EPOCH": "2025-12-11T04:16:09.067008", "MEAN_MOTION": 15.41184057, "ECCENTRICITY": 0.0005151, "INCLINATION": 97.5042, "RA_OF_ASC_NODE": 146.9777, "ARG_OF_PERICENTER": 60.9726, "MEAN_ANOMALY": 299.2035, "EPHEMERIS_TYPE": 0, "CLASSIFICATION_TYPE": "U", "NORAD_CAT_ID": 55974, "ELEMENT_SET_NO": 999, "REV_AT_EPOCH": 15182, "BSTAR": 0.00058226, "MEAN_MOTION_DOT": 0.00024123, "MEAN_MOTION_DDOT": 0}, "tle": {"line1": "1 55974U 23039B   25345.17788272  .00024123  00000+0  58226-3 0  9995", "line2": "2 55974  97.5042 146.9777 0005151  60.9726 299.2035 15.41184057151825"}}, "geometry": {"type": "Point", "coordinates": [146.26309126982534, 6.914575661318924]}}, {"type": "Feature", "properties": {"norad_id": 55975, "name": "TIANMU-1 05", "group": "weather", "lat": 40.35684033860836, "lon": 141.2356860356281, "alt_km": 438.36790414980806, "timestamp": "2025-12-11T08:58:26.757275+00:00", "meta": {"OBJECT_NAME": "TIANMU-1 05", "OBJECT_ID": "2023-039C", "EPOCH": "2025-12-11T04:07:18.735168", "MEAN_MOTION": 15.40805067, "ECCENTRICITY": 0.0004386, "INCLINATION": 97.5089, "RA_OF_ASC_NODE": 147.4637, "ARG_OF_PERICENTER": 82.6563, "MEAN_ANOMALY": 277.5181, "EPHEMERIS_TYPE": 0, "CLASSIFICATION_TYPE": "U", "NORAD_CAT_ID": 55975, "ELEMENT_SET_NO": 999, "REV_AT_EPOCH": 15180, "BSTAR": 0.00055045, "MEAN_MOTION_DOT": 0.00022509, "MEAN_MOTION_DDOT": 0}, "tle": {"line1": "1 55975U 23039C   25345.17174462  .00022509  00000+0  55045-3 0  9998", "line2": "2 55975  97.5089 147.4637 0004386  82.6563 277.5181 15.40805067151806"}}, "geometry": {"type": "Point", "coordinates": [141.2356860356281, 40.35684033860836]}}, {"type": "Feature", "properties": {"norad_id": 55976, "name": "TIANMU-1 06", "group": "weather", "lat": -5.302876056546801, "lon": 148.83683033021242, "alt_km": 445.78795494705173, "timestamp": "2025-12-11T08:58:26.757286+00:00", "meta": {"OBJECT_NAME": "TIANMU-1 06", "OBJECT_ID": "2023-039D", "EPOCH": "2025-12-11T04:19:21.533376", "MEAN_MOTION": 15.41235784, "ECCENTRICITY": 0.0004721, "INCLINATION": 97.5099, "RA_OF_ASC_NODE": 147.936, "ARG_OF_PERICENTER": 77.9051, "MEAN_ANOMALY": 282.2724, "EPHEMERIS_TYPE": 0, "CLASSIFICATION_TYPE": "U", "NORAD_CAT_ID": 55976, "ELEMENT_SET_NO": 999, "REV_AT_EPOCH": 15182, "BSTAR": 0.00056746, "MEAN_MOTION_DOT": 0.00023545, "MEAN_MOTION_DDOT": 0}, "tle": {"line1": "1 55976U 23039D   25345.18011034  .00023545  00000+0  56746-3 0  9995", "line2": "2 55976  97.5099 147.9360 0004721  77.9051 282.2724 15.41235784151820"}}, "geometry": {"type": "Point", "coordinates": [148.83683033021242, -5.302876056546801]}}, {"type": "Feature", "properties": {"norad_id": 56232, "name": "FENGYUN 3G", "group": "weather", "lat": 1.893104725865405, "lon": -123.90708260769229, "alt_km": 411.5727071184092, "timestamp": "2025-12-11T08:58:26.757296+00:00", "meta": {"OBJECT_NAME": "FENGYUN 3G", "OBJECT_ID": "2023-055A", "EPOCH": "2025-12-11T04:19:56.451936", "MEAN_MOTION": 15.53495979, "ECCENTRICITY": 0.0009292, "INCLINATION": 49.9932, "RA_OF_ASC_NODE": 235.5005, "ARG_OF_PERICENTER": 141.2509, "MEAN_ANOMALY": 218.9126, "EPHEMERIS_TYPE": 0, "CLASSIFICATION_TYPE": "U", "NORAD_CAT_ID": 56232, "ELEMENT_SET_NO": 999, "REV_AT_EPOCH": 15078, "BSTAR": 0.00075653, "MEAN_MOTION_DOT": 0.0004892, "MEAN_MOTION_DDOT": 0}, "tle": {"line1": "1 56232U 23055A   25345.18051449  .00048920  00000+0  75653-3 0  9995", "line2": "2 56232  49.9932 235.5005 0009292 141.2509 218.9126 15.53495979150787"}}, "geometry": {"type": "Point", "coordinates": [-123.90708260769229, 1.893104725865405]}}, {"type": "Feature", "properties": {"norad_id": 57166, "name": "METEOR-M2 3", "group": "weather", "lat": 81.33691126198562, "lon": -47.173771085492994, "alt_km": 803.6480533677541, "timestamp": "2025-12-11T08:58:26.757307+00:00", "meta": {"OBJECT_NAME": "METEOR-M2 3", "OBJECT_ID": "2023-091A", "EPOCH": "2025-12-11T05:11:00.343680", "MEAN_MOTION": 14.24025817, "ECCENTRICITY": 0.0003995, "INCLINATION": 98.638, "RA_OF_ASC_NODE": 38.7819, "ARG_OF_PERICENTER": 13.1194, "MEAN_ANOMALY": 347.0088, "EPHEMERIS_TYPE": 0, "CLASSIFICATION_TYPE": "U", "NORAD_CAT_ID": 57166, "ELEMENT_SET_NO": 999, "REV_AT_EPOCH": 12776, "BSTAR": 3.1932e-05, "MEAN_MOTION_DOT": 3e-07, "MEAN_MOTION_DDOT": 0}, "tle": {"line1": "1 57166U 23091A   25345.21597620  .00000030  00000+0  31932-4 0  9995", "line2": "2 57166  98.6380  38.7819 0003995  13.1194 347.0088 14.24025817127769"}}, "geometry": {"type": "Point", "coordinates": [-47.173771085492994, 81.33691126198562]}}, {"type": "Feature", "properties": {"norad_id": 57399, "name": "TIANMU-1 07", "group": "weather", "lat": 53.496660534003794, "lon": -134.78836651190468, "alt_km": 473.78817232877464, "timestamp": "2025-12-11T08:58:26.757318+00:00", "meta": {"OBJECT_NAME": "TIANMU-1 07", "OBJECT_ID": "2023-101A", "EPOCH": "2025-12-11T03:42:39.313152", "MEAN_MOTION": 15.28033268, "ECCENTRICITY": 0.0005614, "INCLINATION": 97.2878, "RA_OF_ASC_NODE": 35.039, "ARG_OF_PERICENTER": 85.6007, "MEAN_ANOMALY": 274.5874, "EPHEMERIS_TYPE": 0, "CLASSIFICATION_TYPE": "U", "NORAD_CAT_ID": 57399, "ELEMENT_SET_NO": 999, "REV_AT_EPOCH": 13291, "BSTAR": 0.00042906, "MEAN_MOTION_DOT": 0.00011671, "MEAN_MOTION_DDOT": 0}, "tle": {"line1": "1 57399U 23101A   25345.15462168  .00011671  00000+0  42906-3 0  9991", "line2": "2 57399  97.2878  35.0390 0005614  85.6007 274.5874 15.28033268132919"}}, "geometry": {"type": "Point", "coordinates": [-134.78836651190468, 53.496660534003794]}}, {"type": "Feature", "properties": {"norad_id": 57400, "name": "TIANMU-1 08", "group": "weather", "lat": -51.95899643109675, "lon": 44.46393063616313, "alt_km": 492.7035454898032, "timestamp": "2025-12-11T08:58:26.757328+00:00", "meta": {"OBJECT_NAME": "TIANMU-1 08", "OBJECT_ID": "2023-101B", "EPOCH": "2025-12-11T04:29:19.896576", "MEAN_MOTION": 15.28018033, "ECCENTRICITY": 0.0007553, "INCLINATION": 97.2867, "RA_OF_ASC_NODE": 34.869, "ARG_OF_PERICENTER": 88.1635, "MEAN_ANOMALY": 272.0469, "EPHEMERIS_TYPE": 0, "CLASSIFICATION_TYPE": "U", "NORAD_CAT_ID": 57400, "ELEMENT_SET_NO": 999, "REV_AT_EPOCH": 13291, "BSTAR": 0.00040564, "MEAN_MOTION_DOT": 0.00011028, "MEAN_MOTION_DDOT": 0}, "tle": {"line1": "1 57400U 23101B   25345.18703584  .00011028  00000+0  40564-3 0  9991", "line2": "2 57400  97.2867  34.8690 0007553  88.1635 272.0469 15.28018033132915"}}, "geometry": {"type": "Point", "coordinates": [44.46393063616313, -51.95899643109675]}}]}